[
    {
        "Altitude(m)": 612513.8952532263,
        "Argument of Periapsis(deg)": 0.0,
        "Eccentricity": 0.0,
        "Inclination(deg)": 60.0,
        "Latitude(deg)": -28.13584562465472,
        "Longitude(deg)": 92.91312072415901,
        "Mean Anomaly(deg)": -147.27270000000004,
        "RAAN(deg)": 355.0,
        "Satellite Name": "Test1 1575",
        "Satellite Number": 1575,
        "Semi-Major Axis(m)": 6980739.136638005,
        "Time(s)": 0
    },
    {
        "Altitude(m)": 612708.2627782513,
        "Argument of Periapsis(deg)": 0.00010418945913296404,
        "Eccentricity": 0.0,
        "Inclination(deg)": 60.0,
        "Latitude(deg)": -28.647584728059797,
        "Longitude(deg)": 93.27035082966702,
        "Mean Anomaly(deg)": -146.65259385453817,
        "RAAN(deg)": 354.99957995086027,
        "Satellite Name": "Test1 1575",
        "Satellite Number": 1575,
        "Semi-Major Axis(m)": 6980739.136638005,
        "Time(s)": 10
    },
    {
        "Altitude(m)": 612903.4569889922,
        "Argument of Periapsis(deg)": 0.0002083789182659281,
        "Eccentricity": 0.0,
        "Inclination(deg)": 60.0,
        "Latitude(deg)": -29.158083684111126,
        "Longitude(deg)": 93.63144814311053,
        "Mean Anomaly(deg)": -146.03248770907635,
        "RAAN(deg)": 354.99915990172053,
        "Satellite Name": "Test1 1575",
        "Satellite Number": 1575,
        "Semi-Major Axis(m)": 6980739.136638005,
        "Time(s)": 20
    },
    {
        "Altitude(m)": 613099.4066755287,
        "Argument of Periapsis(deg)": 0.00031256837739889213,
        "Eccentricity": 0.0,
        "Inclination(deg)": 60.0,
        "Latitude(deg)": -29.6673054240134,
        "Longitude(deg)": 93.99652413465422,
        "Mean Anomaly(deg)": -145.41238156361453,
        "RAAN(deg)": 354.9987398525808,
        "Satellite Name": "Test1 1575",
        "Satellite Number": 1575,
        "Semi-Major Axis(m)": 6980739.136638005,
        "Time(s)": 30
    },
    {
        "Altitude(m)": 613296.0401460895,
        "Argument of Periapsis(deg)": 0.0004167578365318562,
        "Eccentricity": 0.0,
        "Inclination(deg)": 60.0,
        "Latitude(deg)": -30.17521188821389,
        "Longitude(deg)": 94.36569326187721,
        "Mean Anomaly(deg)": -144.79227541815268,
        "RAAN(deg)": 354.99831980344106,
        "Satellite Name": "Test1 1575",
        "Satellite Number": 1575,
        "Semi-Major Axis(m)": 6980739.136638005,
        "Time(s)": 40
    },
    {
        "Altitude(m)": 613493.2852587509,
        "Argument of Periapsis(deg)": 0.0005209472956648203,
        "Eccentricity": 0.0,
        "Inclination(deg)": 60.0,
        "Latitude(deg)": -30.68176398789409,
        "Longitude(deg)": 94.73907202746194,
        "Mean Anomaly(deg)": -144.1721692726908,
        "RAAN(deg)": 354.99789975430133,
        "Satellite Name": "Test1 1575",
        "Satellite Number": 1575,
        "Semi-Major Axis(m)": 6980739.136638005,
        "Time(s)": 50
    },
    {
        "Altitude(m)": 613691.0694533591,
        "Argument of Periapsis(deg)": 0.0006251367547977843,
        "Eccentricity": 0.0,
        "Inclination(deg)": 60.0,
        "Latitude(deg)": -31.186921565121995,
        "Longitude(deg)": 95.11677954986884,
        "Mean Anomaly(deg)": -143.55206312722896,
        "RAAN(deg)": 354.99747970516154,
        "Satellite Name": "Test1 1575",
        "Satellite Number": 1575,
        "Semi-Major Axis(m)": 6980739.136638005,
        "Time(s)": 60
    },
    {
        "Altitude(m)": 613889.3197835736,
        "Argument of Periapsis(deg)": 0.0007293262139307483,
        "Eccentricity": 0.0,
        "Inclination(deg)": 60.0,
        "Latitude(deg)": -31.690643351624427,
        "Longitude(deg)": 95.4989381339599,
        "Mean Anomaly(deg)": -142.93195698176717,
        "RAAN(deg)": 354.99705965602186,
        "Satellite Name": "Test1 1575",
        "Satellite Number": 1575,
        "Semi-Major Axis(m)": 6980739.136638005,
        "Time(s)": 70
    },
    {
        "Altitude(m)": 614087.962949139,
        "Argument of Periapsis(deg)": 0.0008335156730637124,
        "Eccentricity": 0.0,
        "Inclination(deg)": 60.0,
        "Latitude(deg)": -32.192886926141725,
        "Longitude(deg)": 95.88567232851281,
        "Mean Anomaly(deg)": -142.31185083630533,
        "RAAN(deg)": 354.99663960688207,
        "Satellite Name": "Test1 1575",
        "Satellite Number": 1575,
        "Semi-Major Axis(m)": 6980739.136638005,
        "Time(s)": 80
    },
    {
        "Altitude(m)": 614286.9253282557,
        "Argument of Periapsis(deg)": 0.0009377051321966765,
        "Eccentricity": 0.0,
        "Inclination(deg)": 60.0,
        "Latitude(deg)": -32.693608670325254,
        "Longitude(deg)": 96.27710949615799,
        "Mean Anomaly(deg)": -141.69174469084345,
        "RAAN(deg)": 354.9962195577423,
        "Satellite Name": "Test1 1575",
        "Satellite Number": 1575,
        "Semi-Major Axis(m)": 6980739.136638005,
        "Time(s)": 90
    },
    {
        "Altitude(m)": 614486.133010096,
        "Argument of Periapsis(deg)": 0.0010418945913296407,
        "Eccentricity": 0.0,
        "Inclination(deg)": 60.0,
        "Latitude(deg)": -33.19276372314212,
        "Longitude(deg)": 96.6733803826311,
        "Mean Anomaly(deg)": -141.07163854538172,
        "RAAN(deg)": 354.99579950860254,
        "Satellite Name": "Test1 1575",
        "Satellite Number": 1575,
        "Semi-Major Axis(m)": 6980739.136638005,
        "Time(s)": 100
    },
    {
        "Altitude(m)": 614685.5118274527,
        "Argument of Periapsis(deg)": 0.0011460840504626045,
        "Eccentricity": 0.0,
        "Inclination(deg)": 60.0,
        "Latitude(deg)": -33.69030593375007,
        "Longitude(deg)": 97.07461817220461,
        "Mean Anomaly(deg)": -140.4515323999198,
        "RAAN(deg)": 354.9953794594628,
        "Satellite Name": "Test1 1575",
        "Satellite Number": 1575,
        "Semi-Major Axis(m)": 6980739.136638005,
        "Time(s)": 110
    },
    {
        "Altitude(m)": 614884.9873894425,
        "Argument of Periapsis(deg)": 0.0012502735095955685,
        "Eccentricity": 0.0,
        "Inclination(deg)": 60.0,
        "Latitude(deg)": -34.18618781280908,
        "Longitude(deg)": 97.48095905474806,
        "Mean Anomaly(deg)": -139.83142625445805,
        "RAAN(deg)": 354.9949594103231,
        "Satellite Name": "Test1 1575",
        "Satellite Number": 1575,
        "Semi-Major Axis(m)": 6980739.136638005,
        "Time(s)": 120
    },
    {
        "Altitude(m)": 615084.4851143445,
        "Argument of Periapsis(deg)": 0.0013544629687285324,
        "Eccentricity": 0.0,
        "Inclination(deg)": 60.0,
        "Latitude(deg)": -34.68036048219821,
        "Longitude(deg)": 97.892542791217,
        "Mean Anomaly(deg)": -139.2113201089962,
        "RAAN(deg)": 354.99453936118334,
        "Satellite Name": "Test1 1575",
        "Satellite Number": 1575,
        "Semi-Major Axis(m)": 6980739.136638005,
        "Time(s)": 130
    },
    {
        "Altitude(m)": 615283.93026247,
        "Argument of Periapsis(deg)": 0.0014586524278614966,
        "Eccentricity": 0.0,
        "Inclination(deg)": 60.0,
        "Latitude(deg)": -35.17277362310627,
        "Longitude(deg)": 98.30951176433416,
        "Mean Anomaly(deg)": -138.59121396353436,
        "RAAN(deg)": 354.9941193120436,
        "Satellite Name": "Test1 1575",
        "Satellite Number": 1575,
        "Semi-Major Axis(m)": 6980739.136638005,
        "Time(s)": 140
    },
    {
        "Altitude(m)": 615483.24796911,
        "Argument of Periapsis(deg)": 0.0015628418869944607,
        "Eccentricity": 0.0,
        "Inclination(deg)": 60.0,
        "Latitude(deg)": -35.66337542247313,
        "Longitude(deg)": 98.73201153980567,
        "Mean Anomaly(deg)": -137.97110781807254,
        "RAAN(deg)": 354.9936992629039,
        "Satellite Name": "Test1 1575",
        "Satellite Number": 1575,
        "Semi-Major Axis(m)": 6980739.136638005,
        "Time(s)": 150
    },
    {
        "Altitude(m)": 615682.363277491,
        "Argument of Periapsis(deg)": 0.0016670313461274247,
        "Eccentricity": 0.0,
        "Inclination(deg)": 60.0,
        "Latitude(deg)": -36.15211251775635,
        "Longitude(deg)": 99.16019142475142,
        "Mean Anomaly(deg)": -137.3510016726107,
        "RAAN(deg)": 354.99327921376414,
        "Satellite Name": "Test1 1575",
        "Satellite Number": 1575,
        "Semi-Major Axis(m)": 6980739.136638005,
        "Time(s)": 160
    },
    {
        "Altitude(m)": 615881.2011717762,
        "Argument of Periapsis(deg)": 0.0017712208052603888,
        "Eccentricity": 0.0,
        "Inclination(deg)": 60.0,
        "Latitude(deg)": -36.6389299400062,
        "Longitude(deg)": 99.59420350999018,
        "Mean Anomaly(deg)": -136.73089552714885,
        "RAAN(deg)": 354.99285916462435,
        "Satellite Name": "Test1 1575",
        "Satellite Number": 1575,
        "Semi-Major Axis(m)": 6980739.136638005,
        "Time(s)": 170
    },
    {
        "Altitude(m)": 616079.6866100872,
        "Argument of Periapsis(deg)": 0.001875410264393353,
        "Eccentricity": 0.0,
        "Inclination(deg)": 60.0,
        "Latitude(deg)": -37.12377105523541,
        "Longitude(deg)": 100.03420322137883,
        "Mean Anomaly(deg)": -136.11078938168708,
        "RAAN(deg)": 354.9924391154846,
        "Satellite Name": "Test1 1575",
        "Satellite Number": 1575,
        "Semi-Major Axis(m)": 6980739.136638005,
        "Time(s)": 180
    },
    {
        "Altitude(m)": 616277.7445574619,
        "Argument of Periapsis(deg)": 0.0019795997235263173,
        "Eccentricity": 0.0,
        "Inclination(deg)": 60.0,
        "Latitude(deg)": -37.606577504076945,
        "Longitude(deg)": 100.48034986674107,
        "Mean Anomaly(deg)": -135.49068323622518,
        "RAAN(deg)": 354.9920190663449,
        "Satellite Name": "Test1 1575",
        "Satellite Number": 1575,
        "Semi-Major Axis(m)": 6980739.136638005,
        "Time(s)": 190
    }
]